[{"OBJECT_NAME":"BRITE-CA1 (TORONTO)","OBJECT_ID":"2014-033L","EPOCH":"2026-03-09T21:37:14.244384","MEAN_MOTION":14.72464239,"ECCENTRICITY":0.00779067,"INCLINATION":97.9564,"RA_OF_ASC_NODE":199.7641,"ARG_OF_PERICENTER":234.2245,"MEAN_ANOMALY":125.1703,"EPHEMERIS_TYPE":0,"CLASSIFICATION_TYPE":"U","NORAD_CAT_ID":40020,"ELEMENT_SET_NO":999,"REV_AT_EPOCH":62760,"BSTAR":0.00026709929,"MEAN_MOTION_DOT":1.723e-5,"MEAN_MOTION_DDOT":0},{"OBJECT_NAME":"SCATSAT 1","OBJECT_ID":"2016-059H","EPOCH":"2026-03-09T17:18:57.175776","MEAN_MOTION":14.7926349,"ECCENTRICITY":0.00544061,"INCLINATION":98.1298,"RA_OF_ASC_NODE":131.4325,"ARG_OF_PERICENTER":207.4011,"MEAN_ANOMALY":152.4328,"EPHEMERIS_TYPE":0,"CLASSIFICATION_TYPE":"U","NORAD_CAT_ID":41790,"ELEMENT_SET_NO":999,"REV_AT_EPOCH":8688,"BSTAR":0.00025357446,"MEAN_MOTION_DOT":1.875e-5,"MEAN_MOTION_DDOT":0}]
